{
    "links": {
        "self": "http://www.neowsapp.com/rest/v1/neo/3568385?api_key=iIulBulltgU6a56xZRHN4H3l9WmuAYTsLGpBGhQ2"
    },
    "id": "3568385",
    "neo_reference_id": "3568385",
    "name": "(2011 MN4)",
    "designation": "2011 MN4",
    "nasa_jpl_url": "http://ssd.jpl.nasa.gov/sbdb.cgi?sstr=3568385",
    "absolute_magnitude_h": 21.8,
    "estimated_diameter": {
        "kilometers": {
            "estimated_diameter_min": 0.1160259082,
            "estimated_diameter_max": 0.2594418179
        },
        "meters": {
            "estimated_diameter_min": 116.0259082094,
            "estimated_diameter_max": 259.4418179074
        },
        "miles": {
            "estimated_diameter_min": 0.0720951346,
            "estimated_diameter_max": 0.1612096218
        },
        "feet": {
            "estimated_diameter_min": 380.6624406898,
            "estimated_diameter_max": 851.1870938635
        }
    },
    "is_potentially_hazardous_asteroid": false,
    "close_approach_data": [
        {
            "close_approach_date": "2011-06-26",
            "close_approach_date_full": "2011-Jun-26 13:54",
            "epoch_date_close_approach": 1309096440000,
            "relative_velocity": {
                "kilometers_per_second": "4.5679459894",
                "kilometers_per_hour": "16444.6055618285",
                "miles_per_hour": "10218.0383836817"
            },
            "miss_distance": {
                "astronomical": "0.3356148254",
                "lunar": "130.5541670806",
                "kilometers": "50207263.020261898",
                "miles": "31197346.6006062724"
            },
            "orbiting_body": "Earth"
        }
    ],
    "orbital_data": {
        "orbit_id": "11",
        "orbit_determination_date": "2017-04-06 08:53:13",
        "first_observation_date": "2011-06-28",
        "last_observation_date": "2011-07-29",
        "data_arc_in_days": 31,
        "observations_used": 34,
        "orbit_uncertainty": "6",
        "minimum_orbit_intersection": ".260878",
        "jupiter_tisserand_invariant": "3.338",
        "epoch_osculation": "2459000.5",
        "eccentricity": ".4790315915910981",
        "semi_major_axis": "2.414896037235041",
        "inclination": "8.262263877719084",
        "ascending_node_longitude": "247.3122911969063",
        "orbital_period": "1370.711590584335",
        "perihelion_distance": "1.258084544991304",
        "perihelion_argument": "40.80559362444517",
        "aphelion_distance": "3.571707529478779",
        "perihelion_time": "2458510.389692054949",
        "mean_anomaly": "128.7212511167299",
        "mean_motion": ".2626373063983007",
        "equinox": "J2000",
        "orbit_class": {
            "orbit_class_type": "AMO",
            "orbit_class_description": "Near-Earth asteroid orbits similar to that of 1221 Amor",
            "orbit_class_range": "1.017 AU < q (perihelion) < 1.3 AU"
        }
    },
    "is_sentry_object": false
}